IRIDIUM 65 [+]          
1 25288U 98021D   16076.48143035  .00000061  00000-0  14682-4 0  9995
2 25288  86.3945  55.1969 0002367  83.9334 276.2132 14.34216830939416
IRIDIUM 66 [+]          
1 25289U 98021E   16076.51478372  .00000053  00000-0  12023-4 0  9993
2 25289  86.3944  55.0902 0002349  86.6104  52.8749 14.34216429939413
IRIDIUM 67 [+]          
1 25290U 98021F   16076.49411377  .00000068  00000-0  17135-4 0  9999
2 25290  86.3945  55.2285 0002276  86.6833 273.4623 14.34216989939424
IRIDIUM 68 [+]          
1 25291U 98021G   16076.50046063  .00000065  00000-0  15973-4 0  9993
2 25291  86.3947  55.3359 0002344  88.1580 271.9884 14.34216798939398
IRIDIUM 69 [-]          
1 25319U 98026A   16076.50971868  .00000300  00000-0  91699-4 0  9990
2 25319  86.3950  78.2655 0002434  40.1309 320.0068 14.38567085937236
IRIDIUM 71 [-]          
1 25320U 98026B   16076.49265940  .00000255  00000-0  76131-4 0  9990
2 25320  86.3936  74.3813 0003972  69.5754 290.5870 14.38989809937641
IRIDIUM 70 [+]          
1 25342U 98032A   16076.47867571  .00000062  00000-0  14930-4 0  9992
2 25342  86.3950  55.5652 0002386  86.4289  30.4228 14.34216960933496
IRIDIUM 72 [+]          
1 25343U 98032B   16076.47272501  .00000073  00000-0  19071-4 0  9999
2 25343  86.3945  55.2092 0002298  86.4750  65.1058 14.34216773933499
IRIDIUM 73 [-]          
1 25344U 98032C   16076.49370710  .00000336  00000-0  83562-4 0  9991
2 25344  86.4438  36.3467 0002620 102.0197 258.1300 14.48909356941273
IRIDIUM 74 [S]          
1 25345U 98032D   16076.47065263  .00000124  00000-0  31142-4 0  9996
2 25345  86.4457  55.5426 0002145  83.8848  28.9107 14.42956385936746
IRIDIUM 75 [+]          
1 25346U 98032E   16076.47163725  .00000075  00000-0  19858-4 0  9994
2 25346  86.3948  55.4459 0002278  87.0637  26.1860 14.34216938934068
IRIDIUM 3 [+]           
1 25431U 98048A   16076.52521711  .00000115  00000-0  33834-4 0  9990
2 25431  86.3922  87.0429 0002418  88.3046  21.4496 14.34216153920019
IRIDIUM 76 [+]          
1 25432U 98048B   16076.54448130  .00000025  00000-0  18260-5 0  9993
2 25432  86.3919  86.8039 0002383  92.8050  18.6278 14.34216864920000
IRIDIUM 82 [+]          
1 25467U 98051A   16076.49228787  .00000311  00000-0  10390-3 0  9995
2 25467  86.4005 213.4089 0001942  88.9694 271.1724 14.34216938921014
IRIDIUM 81 [+]          
1 25468U 98051B   16076.48590178  .00000267  00000-0  88112-4 0  9999
2 25468  86.3990 213.0532 0001985  96.3550 263.7872 14.34216110917239
IRIDIUM 80 [+]          
1 25469U 98051C   16076.47497468  .00000260  00000-0  85719-4 0  9990
2 25469  86.3993 213.3234 0002017  99.9951 301.9424 14.34215915917236
IRIDIUM 77 [+]          
1 25471U 98051E   16076.48206172  .00000251  00000-0  82542-4 0  9995
2 25471  86.3983 212.9356 0002213  97.2124 308.5648 14.34216119922435
IRIDIUM 2 [-]           
1 25527U 98066A   16076.55862126  .00004427  00000-0  23620-3 0  9998
2 25527  85.5302 302.0210 0008809 344.7885  15.3088 15.14843040948554
IRIDIUM 86 [+]          
1 25528U 98066B   16076.43168936  .00000338  00000-0  11355-3 0  9993
2 25528  86.4013 181.1705 0002369  94.8279 265.3188 14.34217217913758
IRIDIUM 84 [+]          
1 25530U 98066D   16076.39363071  .00000336  00000-0  11304-3 0  9990
2 25530  86.4014 181.3433 0002135  99.5608 260.5829 14.34217636911382
IRIDIUM 83 [+]          
1 25531U 98066E   16076.42534484  .00000355  00000-0  11969-3 0  9991
2 25531  86.4018 181.4366 0002152  99.3395 260.8045 14.34217559908746
IRIDIUM 20 [+]          
1 25577U 98074A   16076.13600651  .00000034  00000-0  52497-5 0  9995
2 25577  86.3917  86.9025 0002310  89.2619 270.8841 14.34216840902782
IRIDIUM 11 [+]          
1 25578U 98074B   16076.51881572  .00000032  00000-0  42691-5 0  9994
2 25578  86.3916  86.9486 0002239  87.2511  22.5687 14.34217401911809
IRIDIUM 14 [S]          
1 25777U 99032A   16076.49089425  .00000067  00000-0  16785-4 0  9996
2 25777  86.3947  55.2751 0002395  85.1742  29.2791 14.34216659889071
IRIDIUM 21 [+]          
1 25778U 99032B   16076.50679880  .00000055  00000-0  12717-4 0  9997
2 25778  86.3946  55.2929 0002242  90.5110 269.6343 14.34216965882513
IRIDIUM 91 [+]          
1 27372U 02005A   16076.56677209  .00000082  00000-0  22153-4 0  9997
2 27372  86.3961 119.1205 0002037  90.7280  19.8197 14.34218363746033
IRIDIUM 90 [S]          
1 27373U 02005B   16076.36486119  .00000430  00000-0  12274-3 0  9993
2 27373  86.4528 181.4279 0002570  99.3438 260.8053 14.42970266745336
IRIDIUM 94 [S]          
1 27374U 02005C   16076.53834747  .00000013  00000-0 -23273-5 0  9998
2 27374  86.3916  87.0611 0003124  96.5097  15.9745 14.34216119750350
IRIDIUM 95 [+]          
1 27375U 02005D   16076.51365451  .00000129  00000-0  38941-4 0  9992
2 27375  86.3960 118.9255 0002389  95.7753 264.3715 14.34220008745319
IRIDIUM 96 [S]          
1 27376U 02005E   16076.28242098  .00000295  00000-0  98218-4 0  9995
2 27376  86.4029 150.4957 0002632 131.7039 228.4382 14.34218147750482
IRIDIUM 97 [+]          
1 27450U 02031A   16076.52978493  .00000262  00000-0  86612-4 0  9998
2 27450  86.3996 150.2371 0002067  96.5876 263.5555 14.34218591724637
IRIDIUM 98 [S]          
1 27451U 02031B   16076.52737880  .00000261  00000-0  86090-4 0  9991
2 27451  86.3984 213.4877 0001919  97.6951 312.8552 14.34217352725707
